NORAD_CAT_ID,OBJECT_NAME,OBJECT_TYPE,EPOCH,MEAN_MOTION,ECCENTRICITY,INCLINATION,RA_OF_ASC_NODE,ARG_OF_PERICENTER,MEAN_ANOMALY,BSTAR,MEAN_MOTION_DOT,MEAN_MOTION_DDOT,TLE_LINE0,TLE_LINE1,TLE_LINE2,SEMIMAJOR_AXIS,PERIOD,APOGEE,PERIGEE,DECAYED
49152.0,STARLINK-3081,PAYLOAD,2023-10-27 16:14:31,14.98335596,0.0002595,69.9994,272.9231,272.3421,87.7441,2.3017e-05,1.82e-06,0.0,0 STARLINK-3081,1 49152U 21082Y   23300.67675057  .00000182  00000-0  23017-4 0  9993,2 49152  69.9994 272.9231 0002595 272.3421  87.7441 14.98335596118674,6950.176,96.107,573.844,570.237,0.0
49152.0,STARLINK-3081,PAYLOAD,2023-10-27 22:39:03,14.98330851,0.0002628,69.9998,272.2506,275.6065,84.4794,0.00010658,1.179e-05,0.0,0 STARLINK-3081,1 49152U 21082Y   23300.94379172  .00001179  00000-0  10658-3 0  9995,2 49152  69.9998 272.2506 0002628 275.6065  84.4794 14.98330851118701,6950.19,96.107,573.882,570.229,0.0
49152.0,STARLINK-3081,PAYLOAD,2023-10-28 08:15:51,14.98332048,0.0002717,69.999,271.2387,262.7622,97.3228,0.00011449,1.273e-05,0.0,0 STARLINK-3081,1 49152U 21082Y   23301.34434998  .00001273  00000-0  11449-3 0  9992,2 49152  69.9990 271.2387 0002717 262.7622  97.3228 14.98332048118765,6950.187,96.107,573.94,570.163,0.0
49152.0,STARLINK-3081,PAYLOAD,2023-10-28 22:41:04,14.98330694,0.0002825,69.999,269.7239,267.976,92.1076,-1.8347e-05,-3.12e-06,0.0,0 STARLINK-3081,1 49152U 21082Y   23301.94519369 -.00000312  00000-0 -18347-4 0  9994,2 49152  69.9990 269.7239 0002825 267.9760  92.1076 14.98330694118852,6950.191,96.107,574.019,570.092,0.0
49152.0,STARLINK-3081,PAYLOAD,2023-10-29 05:05:37,14.98329181,0.0002723,69.9991,269.0507,262.8232,97.2618,-8.1065e-06,-1.9e-06,0.0,0 STARLINK-3081,1 49152U 21082Y   23302.21223458 -.00000190  00000-0 -81065-5 0  9998,2 49152  69.9991 269.0507 0002723 262.8232  97.2618 14.98329181118902,6950.195,96.107,573.953,570.168,0.0
49152.0,STARLINK-3081,PAYLOAD,2023-10-29 08:17:53,14.98329853,0.0002865,69.999,268.7141,266.4963,93.5869,-6.3773e-05,-8.54e-06,0.0,0 STARLINK-3081,1 49152U 21082Y   23302.34575538 -.00000854  00000-0 -63773-4 0  9993,2 49152  69.9990 268.7141 0002865 266.4963  93.5869 14.98329853118913,6950.193,96.107,574.05,570.067,0.0
49152.0,STARLINK-3081,PAYLOAD,2023-10-29 22:43:05,14.98327394,0.0002869,69.9991,267.1992,265.6696,94.4136,2.7891e-05,2.4e-06,0.0,0 STARLINK-3081,1 49152U 21082Y   23302.94659582  .00000240  00000-0  27891-4 0  9999,2 49152  69.9991 267.1992 0002869 265.6696  94.4136 14.98327394119005,6950.201,96.107,574.06,570.072,0.0
49152.0,STARLINK-3081,PAYLOAD,2023-10-30 06:43:45,14.98353611,0.0002648,69.999,266.358,266.8475,93.2381,-0.00020378,-2.525e-05,0.0,0 STARLINK-3081,1 49152U 21082Y   23303.28038371 -.00002525  00000-0 -20378-3 0  9996,2 49152  69.9990 266.3580 0002648 266.8475  93.2381 14.98353611119067,6950.12,96.105,573.825,570.144,0.0
49152.0,STARLINK-3081,PAYLOAD,2023-10-30 14:44:26,14.98332033,0.0002752,69.9991,265.5159,268.9739,91.1105,4.2981e-05,4.2e-06,0.0,0 STARLINK-3081,1 49152U 21082Y   23303.61419250  .00000420  00000-0  42981-4 0  9997,2 49152  69.9991 265.5159 0002752 268.9739  91.1105 14.98332033119115,6950.187,96.107,573.964,570.139,0.0
49152.0,STARLINK-3081,PAYLOAD,2023-10-31 05:09:39,14.9832537,0.0002436,69.9998,264.0023,265.6154,94.4726,4.5969e-06,-3.8e-07,0.0,0 STARLINK-3081,1 49152U 21082Y   23304.21503959 -.00000038  00000-0  45969-5 0  9990,2 49152  69.9998 264.0023 0002436 265.6154  94.4726 14.98325370119201,6950.207,96.107,573.765,570.379,0.0
49152.0,STARLINK-3081,PAYLOAD,2023-10-31 06:45:47,14.98325783,0.0002422,69.9998,263.834,264.8431,95.2452,1.0752e-05,3.5e-07,0.0,0 STARLINK-3081,1 49152U 21082Y   23304.28179957  .00000035  00000-0  10752-4 0  9991,2 49152  69.9998 263.8340 0002422 264.8431  95.2452 14.98325783119207,6950.206,96.107,573.754,570.388,0.0
49152.0,STARLINK-3081,PAYLOAD,2023-10-31 22:47:07,14.9832984,0.0002719,69.9993,262.1499,266.9613,93.1235,3.8121e-05,3.62e-06,0.0,0 STARLINK-3081,1 49152U 21082Y   23304.94939761  .00000362  00000-0  38121-4 0  9994,2 49152  69.9993 262.1499 0002719 266.9613  93.1235 14.98329840119308,6950.193,96.107,573.948,570.169,0.0
49152.0,STARLINK-3081,PAYLOAD,2023-11-01 03:35:31,14.98334259,0.0002822,69.9997,261.6452,271.2321,88.8514,0.00011299,1.256e-05,0.0,0 STARLINK-3081,1 49152U 21082Y   23305.14967304  .00001256  00000-0  11299-3 0  9990,2 49152  69.9997 261.6452 0002822 271.2321  88.8514 14.98334259119340,6950.18,96.107,574.006,570.083,0.0
49152.0,STARLINK-3081,PAYLOAD,2023-11-01 06:47:48,14.98323182,0.0002746,69.9999,261.3087,271.9698,88.1147,0.00035311,4.122e-05,0.0,0 STARLINK-3081,1 49152U 21082Y   23305.28319542  .00004122  00000-0  35311-3 0  9996,2 49152  69.9999 261.3087 0002746 271.9698  88.1147 14.98323182119351,6950.214,96.107,573.988,570.17,0.0
49152.0,STARLINK-3081,PAYLOAD,2023-11-01 22:49:08,14.98330546,0.0002739,70.0009,259.6237,271.5214,88.5631,0.00017566,2.004e-05,0.0,0 STARLINK-3081,1 49152U 21082Y   23305.95079209  .00002004  00000-0  17566-3 0  9992,2 49152  70.0009 259.6237 0002739 271.5214  88.5631 14.98330546119450,6950.191,96.107,573.96,570.153,0.0
49152.0,STARLINK-3081,PAYLOAD,2023-11-02 03:37:32,14.98335873,0.000262,69.9995,259.1184,267.9033,92.1826,0.00016299,1.853e-05,0.0,0 STARLINK-3081,1 49152U 21082Y   23306.15106888  .00001853  00000-0  16299-3 0  9992,2 49152  69.9995 259.1184 0002620 267.9033  92.1826 14.98335873119493,6950.175,96.107,573.861,570.219,0.0
49152.0,STARLINK-3081,PAYLOAD,2023-11-02 06:49:48,14.98334224,0.000251,70.0,258.7819,263.3586,96.7287,0.00021569,2.482e-05,0.0,0 STARLINK-3081,1 49152U 21082Y   23306.28458880  .00002482  00000-0  21569-3 0  9993,2 49152  70.0000 258.7819 0002510 263.3586  96.7287 14.98334224119506,6950.18,96.107,573.789,570.3,0.0
49152.0,STARLINK-3081,PAYLOAD,2023-11-02 14:50:29,14.98332276,0.0002182,70.0017,257.9414,280.3049,79.7864,8.5023e-05,9.22e-06,0.0,0 STARLINK-3081,1 49152U 21082Y   23306.61839414  .00000922  00000-0  85023-4 0  9999,2 49152  70.0017 257.9414 0002182 280.3049  79.7864 14.98332276119567,6950.186,96.107,573.567,570.534,0.0
49152.0,STARLINK-3081,PAYLOAD,2023-11-02 21:15:01,14.98329968,0.0002631,70.0017,257.2667,271.3811,88.7047,5.3946e-05,5.51e-06,0.0,0 STARLINK-3081,1 49152U 21082Y   23306.88543410  .00000551  00000-0  53946-4 0  9993,2 49152  70.0017 257.2667 0002631 271.3811  88.7047 14.98329968119596,6950.193,96.107,573.887,570.229,0.0
49152.0,STARLINK-3081,PAYLOAD,2023-11-03 06:51:49,14.98332014,0.0002688,70.0003,256.2579,272.3182,87.7669,9.9088e-06,2.5e-07,0.0,0 STARLINK-3081,1 49152U 21082Y   23307.28599397  .00000025  00000-0  99088-5 0  9997,2 49152  70.0003 256.2579 0002688 272.3182  87.7669 14.98332014119658,6950.187,96.107,573.92,570.183,0.0
49152.0,STARLINK-3081,PAYLOAD,2023-11-03 21:17:02,14.98331062,0.0002678,70.0003,254.7429,273.4415,86.6437,7.1932e-06,-7e-08,0.0,0 STARLINK-3081,1 49152U 21082Y   23307.88683413 -.00000007  00000-0  71932-5 0  9995,2 49152  70.0003 254.7429 0002678 273.4415  86.6437 14.98331062119748,6950.19,96.107,573.916,570.193,0.0
49152.0,STARLINK-3081,PAYLOAD,2023-11-04 03:41:34,14.98348159,0.0002412,70.0005,254.0717,262.3466,97.7419,-0.00020195,-2.503e-05,0.0,0 STARLINK-3081,1 49152U 21082Y   23308.15386707 -.00002503  00000-0 -20195-3 0  9999,2 49152  70.0005 254.0717 0002412 262.3466  97.7419 14.98348159119795,6950.137,96.106,573.678,570.325,0.0
49152.0,STARLINK-3081,PAYLOAD,2023-11-04 06:53:50,14.9834295,0.0002618,70.0005,253.734,269.6712,90.4147,4.2153e-05,4.1e-06,0.0,0 STARLINK-3081,1 49152U 21082Y   23308.28738488  .00000410  00000-0  42153-4 0  9992,2 49152  70.0005 253.7340 0002618 269.6712  90.4147 14.98342950119808,6950.153,96.106,573.837,570.198,0.0
49152.0,STARLINK-3081,PAYLOAD,2023-11-04 22:55:11,14.98327704,0.0002583,70.0012,252.0513,269.9804,90.1059,0.0001245,1.393e-05,0.0,0 STARLINK-3081,1 49152U 21082Y   23308.95499188  .00001393  00000-0  12450-3 0  9994,2 49152  70.0012 252.0513 0002583 269.9804  90.1059 14.98327704119906,6950.2,96.107,573.86,570.27,0.0
49152.0,STARLINK-3081,PAYLOAD,2023-11-05 03:43:35,14.98331829,0.0002477,70.0009,251.5461,257.2966,102.7916,0.00015657,1.776e-05,0.0,0 STARLINK-3081,1 49152U 21082Y   23309.15526837  .00001776  00000-0  15657-3 0  9996,2 49152  70.0009 251.5461 0002477 257.2966 102.7916 14.98331829119948,6950.187,96.107,573.774,570.331,0.0
49152.0,STARLINK-3081,PAYLOAD,2023-11-05 13:20:22,14.98383105,0.0002266,70.0027,250.5328,292.6421,67.4498,-0.00079821,-9.617e-05,0.0,0 STARLINK-3081,1 49152U 21082Y   23309.55581051 -.00009617  00000-0 -79821-3 0  9996,2 49152  70.0027 250.5328 0002266 292.6421  67.4498 14.98383105119995,6950.029,96.104,573.469,570.319,0.0
49152.0,STARLINK-3081,PAYLOAD,2023-11-05 22:57:11,14.98339671,0.0002906,70.0001,249.5222,280.5708,79.5124,0.00018931,2.167e-05,0.0,0 STARLINK-3081,1 49152U 21082Y   23309.95637822  .00002167  00000-0  18931-3 0  9994,2 49152  70.0001 249.5222 0002906 280.5708  79.5124 14.98339671120051,6950.163,96.106,574.048,570.008,0.0
49152.0,STARLINK-3081,PAYLOAD,2023-11-06 02:09:25,14.98361702,0.0002742,69.9999,249.1891,266.2288,93.8557,0.00031319,3.649e-05,0.0,0 STARLINK-3081,1 49152U 21082Y   23310.08988073  .00003649  00000-0  31319-3 0  9998,2 49152  69.9999 249.1891 0002742 266.2288  93.8557 14.98361702120086,6950.095,96.105,573.866,570.054,0.0
49152.0,STARLINK-3081,PAYLOAD,2023-11-06 06:57:49,14.9836622,0.0002417,70.001,248.6825,262.773,97.3154,0.00045687,5.367e-05,0.0,0 STARLINK-3081,1 49152U 21082Y   23310.29015119  .00005367  00000-0  45687-3 0  9995,2 49152  70.0010 248.6825 0002417 262.7730  97.3154 14.98366220120112,6950.081,96.105,573.626,570.266,0.0
49152.0,STARLINK-3081,PAYLOAD,2023-11-06 13:22:23,14.98341671,0.0002475,70.001,248.0117,262.6399,97.4479,6.011e-05,6.25e-06,0.0,0 STARLINK-3081,1 49152U 21082Y   23310.55721160  .00000625  00000-0  60110-4 0  9995,2 49152  70.0010 248.0117 0002475 262.6399  97.4479 14.98341671120141,6950.157,96.106,573.742,570.302,0.0
